LEMUR-2-LEIA-PHILIP     
1 63246U 25052AN  26190.52338647  .00001484  00000+0  13266-3 0  9998
2 63246  97.6816  82.0959 0005011 132.9473 227.2170 14.97383380 72016
LEMUR-2-LIA-MARTIN      
1 63248U 25052AQ  26191.12148622  .00003770  00000+0  32410-3 0  9991
2 63248  97.6875  83.1935 0005413 102.3403 257.8426 14.98002545 72115
LEMUR-2-DELOITTE-1      
1 63259U 25052BB  26189.69813140  .00002354  00000+0  20556-3 0  9991
2 63259  97.6884  82.1233 0002308  66.8273 293.3192 14.97751965 71914
LEMUR-2-EMERSONROSE     
1 63261U 25052BD  26191.18713981  .00003381  00000+0  28198-3 0  9994
2 63261  97.6882  84.1911 0002796  68.6204 291.5317 14.99261714 72184
LEMUR-2-MARACHE-FRAN    
1 63262U 25052BE  26191.21328215  .00002533  00000+0  20688-3 0  9995
2 63262  97.6852  84.5777 0004672 274.4307  85.6383 15.00296503 72218
LEMUR-2-THEFALCONER     
1 63264U 25052BG  26190.12857510  .00002526  00000+0  22141-3 0  9999
2 63264  97.6850  82.1435 0000734  22.7964 337.3291 14.97544949 71973
LEMUR-2-UNTITLED-SC     
1 63351U 25061A   26190.83116593  .00002220  00000+0  12684-3 0  9995
2 63351  97.5647 166.0309 0018628 181.3182 178.8003 15.13624093 71012
LEMUR-2-ESPERANZA       
1 63352U 25061B   26190.74077637  .00002746  00000+0  15555-3 0  9994
2 63352  97.5652 166.0400 0018314 180.7928 179.3277 15.13732114 71006
LEMUR-2-KREMPEL-BRO2    
1 63353U 25061C   26190.95953525  .00002495  00000+0  13996-3 0  9995
2 63353  97.5701 166.8197 0019435 172.8063 187.3451 15.14156670 71056
LEMUR-2-THERMORAPTOR    
1 63354U 25061D   26190.74213578  .00002595  00000+0  14510-3 0  9994
2 63354  97.5705 166.6835 0019228 172.4021 187.7505 15.14238591 71022
LEMUR-2-NEUROSPICY      
1 63355U 25061E   26190.84422616  .00002196  00000+0  12307-3 0  9990
2 63355  97.5633 166.3937 0016911 174.9087 185.2320 15.14357841 71048
LEMUR-2-TILLINFINITY    
1 63356U 25061F   26190.47445395  .00002798  00000+0  15316-3 0  9990
2 63356  97.5618 166.3322 0018516 164.8306 195.3485 15.14939881 71016
LEMUR-2-KREMPEL-BRO1    
1 63357U 25061G   26190.78107142  .00002223  00000+0  12303-3 0  9996
2 63357  97.5620 166.5469 0019099 165.2122 194.9673 15.14748847 71050
LEMUR-2-LANGER2SPACE    
1 63358U 25061H   26190.48174336  .00002673  00000+0  14862-3 0  9994
2 63358  97.5624 166.0543 0016822 174.4516 185.6905 15.14440730 70990
LEMUR-2-BALTO           
1 63395U 25052BH  26191.13110204  .00003644  00000+0  29517-3 0  9994
2 63395  97.6934  84.4803 0005407 348.2785  11.8312 15.00335374 72204
LEMUR-2-KRISH           
1 64561U 25135AK  26191.27911249  .00003597  00000+0  32233-3 0  9991
2 64561  97.7764 306.0004 0001701  98.2728 261.8686 14.96425392 57376
