{"fetched_at":"2026-07-10T18:07:55.353Z","source":"https://celestrak.org/NORAD/elements/gp.php?GROUP=spire&FORMAT=JSON","constellation":"spire","records":[{"OBJECT_NAME":"LEMUR-2-LEIA-PHILIP","OBJECT_ID":"2025-052AN","EPOCH":"2026-07-09T12:33:40.591008","CLASSIFICATION_TYPE":"U","MEAN_MOTION":14.9738338,"ECCENTRICITY":0.00050117,"INCLINATION":97.6816,"RA_OF_ASC_NODE":82.0959,"ARG_OF_PERICENTER":132.9473,"MEAN_ANOMALY":227.217,"EPHEMERIS_TYPE":0,"NORAD_CAT_ID":63246,"ELEMENT_SET_NO":999,"REV_AT_EPOCH":7201,"BSTAR":0.00013266227,"MEAN_MOTION_DOT":0.00001484,"MEAN_MOTION_DDOT":0},{"OBJECT_NAME":"LEMUR-2-LIA-MARTIN","OBJECT_ID":"2025-052AQ","EPOCH":"2026-07-10T02:54:56.409408","CLASSIFICATION_TYPE":"U","MEAN_MOTION":14.98002545,"ECCENTRICITY":0.00054137,"INCLINATION":97.6875,"RA_OF_ASC_NODE":83.1935,"ARG_OF_PERICENTER":102.3403,"MEAN_ANOMALY":257.8426,"EPHEMERIS_TYPE":0,"NORAD_CAT_ID":63248,"ELEMENT_SET_NO":999,"REV_AT_EPOCH":7211,"BSTAR":0.00032409936,"MEAN_MOTION_DOT":0.0000377,"MEAN_MOTION_DDOT":0},{"OBJECT_NAME":"LEMUR-2-DELOITTE-1","OBJECT_ID":"2025-052BB","EPOCH":"2026-07-08T16:45:18.552960","CLASSIFICATION_TYPE":"U","MEAN_MOTION":14.97751965,"ECCENTRICITY":0.00023088,"INCLINATION":97.6884,"RA_OF_ASC_NODE":82.1233,"ARG_OF_PERICENTER":66.8273,"MEAN_ANOMALY":293.3192,"EPHEMERIS_TYPE":0,"NORAD_CAT_ID":63259,"ELEMENT_SET_NO":999,"REV_AT_EPOCH":7191,"BSTAR":0.00020556086,"MEAN_MOTION_DOT":0.00002354,"MEAN_MOTION_DDOT":0},{"OBJECT_NAME":"LEMUR-2-EMERSONROSE","OBJECT_ID":"2025-052BD","EPOCH":"2026-07-10T04:29:28.879584","CLASSIFICATION_TYPE":"U","MEAN_MOTION":14.99261714,"ECCENTRICITY":0.00027969,"INCLINATION":97.6882,"RA_OF_ASC_NODE":84.1911,"ARG_OF_PERICENTER":68.6204,"MEAN_ANOMALY":291.5317,"EPHEMERIS_TYPE":0,"NORAD_CAT_ID":63261,"ELEMENT_SET_NO":999,"REV_AT_EPOCH":7218,"BSTAR":0.00028198246,"MEAN_MOTION_DOT":0.00003381,"MEAN_MOTION_DDOT":0},{"OBJECT_NAME":"LEMUR-2-MARACHE-FRAN","OBJECT_ID":"2025-052BE","EPOCH":"2026-07-10T05:07:07.577760","CLASSIFICATION_TYPE":"U","MEAN_MOTION":15.00296503,"ECCENTRICITY":0.00046727,"INCLINATION":97.6852,"RA_OF_ASC_NODE":84.5777,"ARG_OF_PERICENTER":274.4307,"MEAN_ANOMALY":85.6383,"EPHEMERIS_TYPE":0,"NORAD_CAT_ID":63262,"ELEMENT_SET_NO":999,"REV_AT_EPOCH":7221,"BSTAR":0.0002068771,"MEAN_MOTION_DOT":0.00002533,"MEAN_MOTION_DDOT":0},{"OBJECT_NAME":"LEMUR-2-THEFALCONER","OBJECT_ID":"2025-052BG","EPOCH":"2026-07-09T03:05:08.888640","CLASSIFICATION_TYPE":"U","MEAN_MOTION":14.97544949,"ECCENTRICITY":0.00007348,"INCLINATION":97.685,"RA_OF_ASC_NODE":82.1435,"ARG_OF_PERICENTER":22.7964,"MEAN_ANOMALY":337.3291,"EPHEMERIS_TYPE":0,"NORAD_CAT_ID":63264,"ELEMENT_SET_NO":999,"REV_AT_EPOCH":7197,"BSTAR":0.00022140592,"MEAN_MOTION_DOT":0.00002526,"MEAN_MOTION_DDOT":0},{"OBJECT_NAME":"LEMUR-2-UNTITLED-SC","OBJECT_ID":"2025-061A","EPOCH":"2026-07-09T19:56:52.736352","CLASSIFICATION_TYPE":"U","MEAN_MOTION":15.13624093,"ECCENTRICITY":0.00186287,"INCLINATION":97.5647,"RA_OF_ASC_NODE":166.0309,"ARG_OF_PERICENTER":181.3182,"MEAN_ANOMALY":178.8003,"EPHEMERIS_TYPE":0,"NORAD_CAT_ID":63351,"ELEMENT_SET_NO":999,"REV_AT_EPOCH":7101,"BSTAR":0.0001268394,"MEAN_MOTION_DOT":0.0000222,"MEAN_MOTION_DDOT":0},{"OBJECT_NAME":"LEMUR-2-ESPERANZA","OBJECT_ID":"2025-061B","EPOCH":"2026-07-09T17:46:43.078368","CLASSIFICATION_TYPE":"U","MEAN_MOTION":15.13732114,"ECCENTRICITY":0.00183142,"INCLINATION":97.5652,"RA_OF_ASC_NODE":166.04,"ARG_OF_PERICENTER":180.7928,"MEAN_ANOMALY":179.3277,"EPHEMERIS_TYPE":0,"NORAD_CAT_ID":63352,"ELEMENT_SET_NO":999,"REV_AT_EPOCH":7100,"BSTAR":0.00015555406,"MEAN_MOTION_DOT":0.00002746,"MEAN_MOTION_DDOT":0},{"OBJECT_NAME":"LEMUR-2-KREMPEL-BRO2","OBJECT_ID":"2025-061C","EPOCH":"2026-07-09T23:01:43.845600","CLASSIFICATION_TYPE":"U","MEAN_MOTION":15.1415667,"ECCENTRICITY":0.00194354,"INCLINATION":97.5701,"RA_OF_ASC_NODE":166.8197,"ARG_OF_PERICENTER":172.8063,"MEAN_ANOMALY":187.3451,"EPHEMERIS_TYPE":0,"NORAD_CAT_ID":63353,"ELEMENT_SET_NO":999,"REV_AT_EPOCH":7105,"BSTAR":0.00013996171,"MEAN_MOTION_DOT":0.00002495,"MEAN_MOTION_DDOT":0},{"OBJECT_NAME":"LEMUR-2-THERMORAPTOR","OBJECT_ID":"2025-061D","EPOCH":"2026-07-09T17:48:40.531392","CLASSIFICATION_TYPE":"U","MEAN_MOTION":15.14238591,"ECCENTRICITY":0.00192283,"INCLINATION":97.5705,"RA_OF_ASC_NODE":166.6835,"ARG_OF_PERICENTER":172.4021,"MEAN_ANOMALY":187.7505,"EPHEMERIS_TYPE":0,"NORAD_CAT_ID":63354,"ELEMENT_SET_NO":999,"REV_AT_EPOCH":7102,"BSTAR":0.00014510095,"MEAN_MOTION_DOT":0.00002595,"MEAN_MOTION_DDOT":0},{"OBJECT_NAME":"LEMUR-2-NEUROSPICY","OBJECT_ID":"2025-061E","EPOCH":"2026-07-09T20:15:41.140224","CLASSIFICATION_TYPE":"U","MEAN_MOTION":15.14357841,"ECCENTRICITY":0.00169111,"INCLINATION":97.5633,"RA_OF_ASC_NODE":166.3937,"ARG_OF_PERICENTER":174.9087,"MEAN_ANOMALY":185.232,"EPHEMERIS_TYPE":0,"NORAD_CAT_ID":63355,"ELEMENT_SET_NO":999,"REV_AT_EPOCH":7104,"BSTAR":0.00012306647,"MEAN_MOTION_DOT":0.00002196,"MEAN_MOTION_DDOT":0},{"OBJECT_NAME":"LEMUR-2-TILLINFINITY","OBJECT_ID":"2025-061F","EPOCH":"2026-07-09T11:23:12.821280","CLASSIFICATION_TYPE":"U","MEAN_MOTION":15.14939881,"ECCENTRICITY":0.00185169,"INCLINATION":97.5618,"RA_OF_ASC_NODE":166.3322,"ARG_OF_PERICENTER":164.8306,"MEAN_ANOMALY":195.3485,"EPHEMERIS_TYPE":0,"NORAD_CAT_ID":63356,"ELEMENT_SET_NO":999,"REV_AT_EPOCH":7101,"BSTAR":0.00015315679,"MEAN_MOTION_DOT":0.00002798,"MEAN_MOTION_DDOT":0},{"OBJECT_NAME":"LEMUR-2-KREMPEL-BRO1","OBJECT_ID":"2025-061G","EPOCH":"2026-07-09T18:44:44.570688","CLASSIFICATION_TYPE":"U","MEAN_MOTION":15.14748847,"ECCENTRICITY":0.00190995,"INCLINATION":97.562,"RA_OF_ASC_NODE":166.5469,"ARG_OF_PERICENTER":165.2122,"MEAN_ANOMALY":194.9673,"EPHEMERIS_TYPE":0,"NORAD_CAT_ID":63357,"ELEMENT_SET_NO":999,"REV_AT_EPOCH":7105,"BSTAR":0.00012302982,"MEAN_MOTION_DOT":0.00002223,"MEAN_MOTION_DDOT":0},{"OBJECT_NAME":"LEMUR-2-LANGER2SPACE","OBJECT_ID":"2025-061H","EPOCH":"2026-07-09T11:33:42.626304","CLASSIFICATION_TYPE":"U","MEAN_MOTION":15.1444073,"ECCENTRICITY":0.00168229,"INCLINATION":97.5624,"RA_OF_ASC_NODE":166.0543,"ARG_OF_PERICENTER":174.4516,"MEAN_ANOMALY":185.6905,"EPHEMERIS_TYPE":0,"NORAD_CAT_ID":63358,"ELEMENT_SET_NO":999,"REV_AT_EPOCH":7099,"BSTAR":0.00014862125,"MEAN_MOTION_DOT":0.00002673,"MEAN_MOTION_DDOT":0},{"OBJECT_NAME":"LEMUR-2-BALTO","OBJECT_ID":"2025-052BH","EPOCH":"2026-07-10T03:08:47.216256","CLASSIFICATION_TYPE":"U","MEAN_MOTION":15.00335374,"ECCENTRICITY":0.00054077,"INCLINATION":97.6934,"RA_OF_ASC_NODE":84.4803,"ARG_OF_PERICENTER":348.2785,"MEAN_ANOMALY":11.8312,"EPHEMERIS_TYPE":0,"NORAD_CAT_ID":63395,"ELEMENT_SET_NO":999,"REV_AT_EPOCH":7220,"BSTAR":0.00029516608,"MEAN_MOTION_DOT":0.00003644,"MEAN_MOTION_DDOT":0},{"OBJECT_NAME":"LEMUR-2-KRISH","OBJECT_ID":"2025-135AK","EPOCH":"2026-07-10T06:41:55.319136","CLASSIFICATION_TYPE":"U","MEAN_MOTION":14.96425392,"ECCENTRICITY":0.00017013,"INCLINATION":97.7764,"RA_OF_ASC_NODE":306.0004,"ARG_OF_PERICENTER":98.2728,"MEAN_ANOMALY":261.8686,"EPHEMERIS_TYPE":0,"NORAD_CAT_ID":64561,"ELEMENT_SET_NO":999,"REV_AT_EPOCH":5737,"BSTAR":0.00032232974,"MEAN_MOTION_DOT":0.00003597,"MEAN_MOTION_DDOT":0}]}
